CCSDS_OMM_VERS = 2.0
CREATION_DATE  = 
ORIGINATOR     = 

OBJECT_NAME    = SL-16 R/B
OBJECT_ID      = 1992-093B
CENTER_NAME    = EARTH
REF_FRAME      = TEME
TIME_SYSTEM    = UTC
MEAN_ELEMENT_THEORY = SGP/SGP4

EPOCH          = 2025-11-13T03:11:19.080672
MEAN_MOTION    = 14.15424589
ECCENTRICITY   = .0002774
INCLINATION    = 71.0215
RA_OF_ASC_NODE = 248.9433
ARG_OF_PERICENTER = 153.6774
MEAN_ANOMALY   = 206.4490

EPHEMERIS_TYPE = 0
CLASSIFICATION_TYPE = U
NORAD_CAT_ID   = 22285
ELEMENT_SET_NO = 999
REV_AT_EPOCH   = 69666
BSTAR          = .23076E-3
MEAN_MOTION_DOT = .403E-5
MEAN_MOTION_DDOT = 0

CCSDS_OMM_VERS = 2.0
CREATION_DATE  = 
ORIGINATOR     = 

OBJECT_NAME    = COSMOS 2228
OBJECT_ID      = 1992-094A
CENTER_NAME    = EARTH
REF_FRAME      = TEME
TIME_SYSTEM    = UTC
MEAN_ELEMENT_THEORY = SGP/SGP4

EPOCH          = 2025-11-13T03:19:54.339168
MEAN_MOTION    = 14.96534592
ECCENTRICITY   = .0017274
INCLINATION    = 82.5193
RA_OF_ASC_NODE = 348.8555
ARG_OF_PERICENTER = 339.3827
MEAN_ANOMALY   = 20.6696

EPHEMERIS_TYPE = 0
CLASSIFICATION_TYPE = U
NORAD_CAT_ID   = 22286
ELEMENT_SET_NO = 999
REV_AT_EPOCH   = 75862
BSTAR          = .48244E-3
MEAN_MOTION_DOT = .5525E-4
MEAN_MOTION_DDOT = 0

CCSDS_OMM_VERS = 2.0
CREATION_DATE  = 
ORIGINATOR     = 

OBJECT_NAME    = SL-16 R/B
OBJECT_ID      = 1993-016B
CENTER_NAME    = EARTH
REF_FRAME      = TEME
TIME_SYSTEM    = UTC
MEAN_ELEMENT_THEORY = SGP/SGP4

EPOCH          = 2025-11-13T02:11:02.325696
MEAN_MOTION    = 14.15280708
ECCENTRICITY   = .000909
INCLINATION    = 71.0058
RA_OF_ASC_NODE = 100.0711
ARG_OF_PERICENTER = 151.7173
MEAN_ANOMALY   = 208.4445

EPHEMERIS_TYPE = 0
CLASSIFICATION_TYPE = U
NORAD_CAT_ID   = 22566
ELEMENT_SET_NO = 999
REV_AT_EPOCH   = 68567
BSTAR          = .20326E-3
MEAN_MOTION_DOT = .348E-5
MEAN_MOTION_DDOT = 0

CCSDS_OMM_VERS = 2.0
CREATION_DATE  = 
ORIGINATOR     = 

OBJECT_NAME    = COSMOS 2242
OBJECT_ID      = 1993-024A
CENTER_NAME    = EARTH
REF_FRAME      = TEME
TIME_SYSTEM    = UTC
MEAN_ELEMENT_THEORY = SGP/SGP4

EPOCH          = 2025-11-13T03:20:18.144096
MEAN_MOTION    = 14.95932806
ECCENTRICITY   = .0015796
INCLINATION    = 82.5214
RA_OF_ASC_NODE = 18.1308
ARG_OF_PERICENTER = 342.3173
MEAN_ANOMALY   = 17.7497

EPHEMERIS_TYPE = 0
CLASSIFICATION_TYPE = U
NORAD_CAT_ID   = 22626
ELEMENT_SET_NO = 999
REV_AT_EPOCH   = 76296
BSTAR          = .46812E-3
MEAN_MOTION_DOT = .5278E-4
MEAN_MOTION_DDOT = 0

CCSDS_OMM_VERS = 2.0
CREATION_DATE  = 
ORIGINATOR     = 

OBJECT_NAME    = SL-16 R/B
OBJECT_ID      = 1993-059B
CENTER_NAME    = EARTH
REF_FRAME      = TEME
TIME_SYSTEM    = UTC
MEAN_ELEMENT_THEORY = SGP/SGP4

EPOCH          = 2025-11-13T03:47:47.317056
MEAN_MOTION    = 14.17205844
ECCENTRICITY   = .001618
INCLINATION    = 70.9900
RA_OF_ASC_NODE = 256.8628
ARG_OF_PERICENTER = 20.5001
MEAN_ANOMALY   = 339.6769

EPHEMERIS_TYPE = 0
CLASSIFICATION_TYPE = U
NORAD_CAT_ID   = 22803
ELEMENT_SET_NO = 999
REV_AT_EPOCH   = 66302
BSTAR          = .21989E-3
MEAN_MOTION_DOT = .396E-5
MEAN_MOTION_DDOT = 0

CCSDS_OMM_VERS = 2.0
CREATION_DATE  = 
ORIGINATOR     = 

OBJECT_NAME    = ARIANE 40 R/B
OBJECT_ID      = 1993-061H
CENTER_NAME    = EARTH
REF_FRAME      = TEME
TIME_SYSTEM    = UTC
MEAN_ELEMENT_THEORY = SGP/SGP4

EPOCH          = 2025-11-13T03:33:29.937024
MEAN_MOTION    = 14.32774000
ECCENTRICITY   = .0009621
INCLINATION    = 98.5112
RA_OF_ASC_NODE = 23.2117
ARG_OF_PERICENTER = 268.7537
MEAN_ANOMALY   = 91.2545

EPHEMERIS_TYPE = 0
CLASSIFICATION_TYPE = U
NORAD_CAT_ID   = 22830
ELEMENT_SET_NO = 999
REV_AT_EPOCH   = 67741
BSTAR          = .24825E-3
MEAN_MOTION_DOT = .633E-5
MEAN_MOTION_DDOT = 0

CCSDS_OMM_VERS = 2.0
CREATION_DATE  = 
ORIGINATOR     = 

OBJECT_NAME    = COSMOS 2278
OBJECT_ID      = 1994-023A
CENTER_NAME    = EARTH
REF_FRAME      = TEME
TIME_SYSTEM    = UTC
MEAN_ELEMENT_THEORY = SGP/SGP4

EPOCH          = 2025-11-13T01:02:37.555008
MEAN_MOTION    = 14.14338124
ECCENTRICITY   = .0010004
INCLINATION    = 71.0541
RA_OF_ASC_NODE = 59.1365
ARG_OF_PERICENTER = 217.4993
MEAN_ANOMALY   = 142.5433

EPHEMERIS_TYPE = 0
CLASSIFICATION_TYPE = U
NORAD_CAT_ID   = 23087
ELEMENT_SET_NO = 999
REV_AT_EPOCH   = 62831
BSTAR          = .29708E-3
MEAN_MOTION_DOT = .521E-5
MEAN_MOTION_DDOT = 0

CCSDS_OMM_VERS = 2.0
CREATION_DATE  = 
ORIGINATOR     = 

OBJECT_NAME    = SL-16 R/B
OBJECT_ID      = 1994-023B
CENTER_NAME    = EARTH
REF_FRAME      = TEME
TIME_SYSTEM    = UTC
MEAN_ELEMENT_THEORY = SGP/SGP4

EPOCH          = 2025-11-13T03:26:18.394080
MEAN_MOTION    = 14.14992513
ECCENTRICITY   = .0001362
INCLINATION    = 70.9995
RA_OF_ASC_NODE = 315.6412
ARG_OF_PERICENTER = 162.4437
MEAN_ANOMALY   = 197.6733

EPHEMERIS_TYPE = 0
CLASSIFICATION_TYPE = U
NORAD_CAT_ID   = 23088
ELEMENT_SET_NO = 999
REV_AT_EPOCH   = 62960
BSTAR          = -.48447E-4
MEAN_MOTION_DOT = -.141E-5
MEAN_MOTION_DDOT = 0

CCSDS_OMM_VERS = 2.0
CREATION_DATE  = 
ORIGINATOR     = 

OBJECT_NAME    = SL-16 R/B
OBJECT_ID      = 1994-074B
CENTER_NAME    = EARTH
REF_FRAME      = TEME
TIME_SYSTEM    = UTC
MEAN_ELEMENT_THEORY = SGP/SGP4

EPOCH          = 2025-11-13T02:46:48.721152
MEAN_MOTION    = 14.79239850
ECCENTRICITY   = .0005358
INCLINATION    = 97.7242
RA_OF_ASC_NODE = 347.5926
ARG_OF_PERICENTER = 233.7386
MEAN_ANOMALY   = 191.4524

EPHEMERIS_TYPE = 0
CLASSIFICATION_TYPE = U
NORAD_CAT_ID   = 23343
ELEMENT_SET_NO = 999
REV_AT_EPOCH   = 67001
BSTAR          = .17118E-3
MEAN_MOTION_DOT = .1222E-4
MEAN_MOTION_DDOT = 0

CCSDS_OMM_VERS = 2.0
CREATION_DATE  = 
ORIGINATOR     = 

OBJECT_NAME    = SL-16 R/B
OBJECT_ID      = 1994-077B
CENTER_NAME    = EARTH
REF_FRAME      = TEME
TIME_SYSTEM    = UTC
MEAN_ELEMENT_THEORY = SGP/SGP4

EPOCH          = 2025-11-13T04:05:17.813184
MEAN_MOTION    = 14.15545218
ECCENTRICITY   = .0003988
INCLINATION    = 70.9829
RA_OF_ASC_NODE = 237.6174
ARG_OF_PERICENTER = 308.7484
MEAN_ANOMALY   = 51.3282

EPHEMERIS_TYPE = 0
CLASSIFICATION_TYPE = U
NORAD_CAT_ID   = 23405
ELEMENT_SET_NO = 999
REV_AT_EPOCH   = 59974
BSTAR          = .19227E-3
MEAN_MOTION_DOT = .328E-5
MEAN_MOTION_DDOT = 0

CCSDS_OMM_VERS = 2.0
CREATION_DATE  = 
ORIGINATOR     = 

OBJECT_NAME    = ARIANE 40+ R/B
OBJECT_ID      = 1995-021B
CENTER_NAME    = EARTH
REF_FRAME      = TEME
TIME_SYSTEM    = UTC
MEAN_ELEMENT_THEORY = SGP/SGP4

EPOCH          = 2025-11-13T04:46:17.965056
MEAN_MOTION    = 14.39661938
ECCENTRICITY   = .0007702
INCLINATION    = 98.4686
RA_OF_ASC_NODE = 25.1398
ARG_OF_PERICENTER = 126.5164
MEAN_ANOMALY   = 293.4790

EPHEMERIS_TYPE = 0
CLASSIFICATION_TYPE = U
NORAD_CAT_ID   = 23561
ELEMENT_SET_NO = 999
REV_AT_EPOCH   = 60248
BSTAR          = .28809E-3
MEAN_MOTION_DOT = .858E-5
MEAN_MOTION_DDOT = 0

CCSDS_OMM_VERS = 2.0
CREATION_DATE  = 
ORIGINATOR     = 

OBJECT_NAME    = SL-16 R/B
OBJECT_ID      = 1995-058B
CENTER_NAME    = EARTH
REF_FRAME      = TEME
TIME_SYSTEM    = UTC
MEAN_ELEMENT_THEORY = SGP/SGP4

EPOCH          = 2025-11-13T00:43:29.197056
MEAN_MOTION    = 14.15476778
ECCENTRICITY   = .0014903
INCLINATION    = 71.0227
RA_OF_ASC_NODE = 65.1765
ARG_OF_PERICENTER = 293.5866
MEAN_ANOMALY   = 66.3691

EPHEMERIS_TYPE = 0
CLASSIFICATION_TYPE = U
NORAD_CAT_ID   = 23705
ELEMENT_SET_NO = 999
REV_AT_EPOCH   = 55134
BSTAR          = .13566E-4
MEAN_MOTION_DOT = -.21E-6
MEAN_MOTION_DDOT = 0

