SL-16 R/B               
1 22285U 92093B   25317.13285973  .00000403  00000+0  23076-3 0  9995
2 22285  71.0215 248.9433 0002774 153.6774 206.4490 14.15424589696664
COSMOS 2228             
1 22286U 92094A   25317.13882337  .00005525  00000+0  48244-3 0  9998
2 22286  82.5193 348.8555 0017274 339.3827  20.6696 14.96534592758629
SL-16 R/B               
1 22566U 93016B   25317.09099914  .00000348  00000+0  20326-3 0  9999
2 22566  71.0058 100.0711 0009090 151.7173 208.4445 14.15280708685672
COSMOS 2242             
1 22626U 93024A   25317.13909889  .00005278  00000+0  46812-3 0  9996
2 22626  82.5214  18.1308 0015796 342.3173  17.7497 14.95932806762966
SL-16 R/B               
1 22803U 93059B   25317.15818654  .00000396  00000+0  21989-3 0  9996
2 22803  70.9900 256.8628 0016180  20.5001 339.6769 14.17205844663029
ARIANE 40 R/B           
1 22830U 93061H   25317.14826316  .00000633  00000+0  24825-3 0  9998
2 22830  98.5112  23.2117 0009621 268.7537  91.2545 14.32774000677414
COSMOS 2278             
1 23087U 94023A   25317.04349022  .00000521  00000+0  29708-3 0  9996
2 23087  71.0541  59.1365 0010004 217.4993 142.5433 14.14338124628312
SL-16 R/B               
1 23088U 94023B   25317.14326845 -.00000141  00000+0 -48447-4 0  9998
2 23088  70.9995 315.6412 0001362 162.4437 197.6733 14.14992513629601
SL-16 R/B               
1 23343U 94074B   25317.11584168  .00001222  00000+0  17118-3 0  9998
2 23343  97.7242 347.5926 0005358 233.7386 191.4524 14.79239850670015
SL-16 R/B               
1 23405U 94077B   25317.17034506  .00000328  00000+0  19227-3 0  9991
2 23405  70.9829 237.6174 0003988 308.7484  51.3282 14.15545218599744
ARIANE 40+ R/B          
1 23561U 95021B   25317.19881904  .00000858  00000+0  28809-3 0  9992
2 23561  98.4686  25.1398 0007702 126.5164 293.4790 14.39661938602483
SL-16 R/B               
1 23705U 95058B   25317.03019904 -.00000021  00000+0  13566-4 0  9996
2 23705  71.0227  65.1765 0014903 293.5866  66.3691 14.15476778551343
